*******************************************************************************
JPL/HORIZONS              4256 Kagamigawa (1986 TX)        2023-Sep-04 11:28:11
Rec #:    4256 (+COV) Soln.date: 2023-Aug-23_17:14:15   # obs: 4043 (1982-2023)
 
IAU76/J2000 helio. ecliptic osc. elements (au, days, deg., period=Julian yrs):
 
  EPOCH=  2457546.5 ! 2016-Jun-07.00 (TDB)         Residual RMS= .26514
   EC= .0705909639887987   QR= 2.184656888015352   TP= 2456973.5041456204
   OM= 72.52310011308592   W=  227.2524822243093   IN= 3.043195097711827
   A= 2.350587097142256    MA= 156.7079509260052   ADIST= 2.516517306269159
   PER= 3.6039             N= .273488804           ANGMOM= .026307819
   DAN= 2.45658            DDN= 2.23193            L= 299.7352771
   B= -2.2342918           MOID= 1.16980004        TP= 2014-Nov-12.0041456204
 
Asteroid physical parameters (km, seconds, rotational period in hours):
   GM= n.a.                RAD= 3.7795             ROTPER= n.a.
   H= 13.29                G= .150                 B-V= n.a.
                           ALBEDO= .233            STYP= Xc

ASTEROID comments: 
1: soln ref.= JPL#53, OCC=0
2: source=ORB
*******************************************************************************


*******************************************************************************
Ephemeris / API_USER Mon Sep  4 11:28:11 2023 Pasadena, USA      / Horizons
*******************************************************************************
Target body name: 4256 Kagamigawa (1986 TX)       {source: JPL#53}
Center body name: Solar System Barycenter (0)     {source: DE441}
Center-site name: BODY CENTER
*******************************************************************************
Start time      : A.D. 2023-Aug-12 00:00:00.0000 TDB
Stop  time      : A.D. 2023-Aug-13 00:00:00.0000 TDB
Step-size       : 2880 minutes
*******************************************************************************
Center geodetic : 0.0, 0.0, 0.0                   {E-lon(deg),Lat(deg),Alt(km)}
Center cylindric: 0.0, 0.0, 0.0                   {E-lon(deg),Dxy(km),Dz(km)}
Center radii    : (undefined)
Small perturbers: Yes                             {source: SB441-N16}
Output units    : KM-S
Calendar mode   : Mixed Julian/Gregorian
Output type     : GEOMETRIC cartesian states
Output format   : 2 (position and velocity)
Reference frame : Ecliptic of J2000.0
*******************************************************************************
Initial IAU76/J2000 heliocentric ecliptic osculating elements (au, days, deg.):
  EPOCH=  2457546.5 ! 2016-Jun-07.00 (TDB)         Residual RMS= .26514        
   EC= .0705909639887987   QR= 2.184656888015352   TP= 2456973.5041456204      
   OM= 72.52310011308592   W=  227.2524822243093   IN= 3.043195097711827       
  Equivalent ICRF heliocentric cartesian coordinates (au, au/d):
   X=-4.092925291208491E-01  Y= 2.242474439177026E+00  Z= 1.037841403270265E+00
  VX=-1.039378560843141E-02 VY=-1.535015430566343E-03 VZ=-1.163553638539332E-04
Asteroid physical parameters (km, seconds, rotational period in hours):        
   GM= n.a.                RAD= 3.7795             ROTPER= n.a.                
   H= 13.29                G= .150                 B-V= n.a.                   
                           ALBEDO= .233            STYP= Xc                    
*******************************************************************************
JDTDB
   X     Y     Z
   VX    VY    VZ
*******************************************************************************
$$SOE
2460168.500000000 = A.D. 2023-Aug-12 00:00:00.0000 TDB 
 X =-4.392083475718605E+07 Y = 3.714691813175588E+08 Z = 8.153021976131499E+06
 VX=-1.811929095141846E+01 VY=-1.567946618575469E+00 VZ= 8.941016022360011E-01
$$EOE
*******************************************************************************
 
TIME

  Barycentric Dynamical Time ("TDB" or T_eph) output was requested. This
continuous coordinate time is equivalent to the relativistic proper time
of a clock at rest in a reference frame co-moving with the solar system
barycenter but outside the system's gravity well. It is the independent
variable in the solar system relativistic equations of motion.

  TDB runs at a uniform rate of one SI second per second and is independent
of irregularities in Earth's rotation.
 
CALENDAR SYSTEM

  Mixed calendar mode was active such that calendar dates after AD 1582-Oct-15
(if any) are in the modern Gregorian system. Dates prior to 1582-Oct-5 (if any)
are in the Julian calendar system, which is automatically extended for dates
prior to its adoption on 45-Jan-1 BC.  The Julian calendar is useful for
matching historical dates. The Gregorian calendar more accurately corresponds
to the Earth's orbital motion and seasons. A "Gregorian-only" calendar mode is
available if such physical events are the primary interest.

REFERENCE FRAME AND COORDINATES

  Ecliptic at the standard reference epoch

    Reference epoch: J2000.0
    X-Y plane: adopted Earth orbital plane at the reference epoch
               Note: IAU76 obliquity of 84381.448 arcseconds wrt ICRF X-Y plane
    X-axis   : ICRF
    Z-axis   : perpendicular to the X-Y plane in the directional (+ or -) sense
               of Earth's north pole at the reference epoch.

  Symbol meaning:

    JDTDB    Julian Day Number, Barycentric Dynamical Time
      X      X-component of position vector (km)
      Y      Y-component of position vector (km)
      Z      Z-component of position vector (km)
      VX     X-component of velocity vector (km/sec)                           
      VY     Y-component of velocity vector (km/sec)                           
      VZ     Z-component of velocity vector (km/sec)                           

ABERRATIONS AND CORRECTIONS

 Geometric state vectors have NO corrections or aberrations applied.

Computations by ...

    Solar System Dynamics Group, Horizons On-Line Ephemeris System
    4800 Oak Grove Drive, Jet Propulsion Laboratory
    Pasadena, CA  91109   USA

    General site: https://ssd.jpl.nasa.gov/
    Mailing list: https://ssd.jpl.nasa.gov/email_list.html
    System news : https://ssd.jpl.nasa.gov/horizons/news.html
    User Guide  : https://ssd.jpl.nasa.gov/horizons/manual.html
    Connect     : browser        https://ssd.jpl.nasa.gov/horizons/app.html#/x
                  API            https://ssd-api.jpl.nasa.gov/doc/horizons.html
                  command-line   telnet ssd.jpl.nasa.gov 6775
                  e-mail/batch   https://ssd.jpl.nasa.gov/ftp/ssd/hrzn_batch.txt
                  scripts        https://ssd.jpl.nasa.gov/ftp/ssd/SCRIPTS
    Author      : Jon.D.Giorgini@jpl.nasa.gov
*******************************************************************************
